ONEWEB-0531             
1 54146U 22138AK  25278.15938412  .00000106  00000+0  22830-3 0  9997
2 54146  87.9240 325.2924 0002779  93.4836 266.6615 13.20770187145645
ONEWEB-0535             
1 54147U 22138AL  25278.48649462 -.00000291  00000+0 -76006-3 0  9999
2 54147  87.9287 355.6040 0002069  92.5582 267.5788 13.19724486143247
ONEWEB-0536             
1 54148U 22138AM  25278.37402689  .00000012  00000+0 -29118-5 0  9990
2 54148  87.9240 325.2965 0002928  96.6222 263.5244 13.20772541145664
ONEWEB-0527             
1 54642U 22166A   25278.45300718  .00000011  00000+0 -41293-5 0  9996
2 54642  87.9171 294.8325 0001891  94.4483 265.6867 13.21824967137880
ONEWEB-0528             
1 54643U 22166B   25278.45931332  .00000021  00000+0  20506-4 0  9992
2 54643  87.9174 294.8338 0001899  94.6298 265.5053 13.21824126137896
ONEWEB-0539             
1 54644U 22166C   25278.41989122  .00000116  00000+0  25007-3 0  9994
2 54644  87.9171 294.8086 0001748  87.6481 272.4853 13.21826420137886
ONEWEB-0540             
1 54645U 22166D   25278.50203464  .00000034  00000+0  51781-4 0  9991
2 54645  87.9174 294.8302 0001732  87.3641 272.7691 13.21825891137883
ONEWEB-0542             
1 54646U 22166E   25278.50504317  .00000150  00000+0  33128-3 0  9996
2 54646  87.9169 294.7892 0001825  77.9770 282.1568 13.21825220137897
